{"type": "FeatureCollection", "features": [ {"type": "Feature", "properties": {"norad_id": 33492, "name": "GOSAT (IBUKI)", "group": "resource", "lat": 66.97412770701604, "lon": 71.38827045298969, "alt_km": 661.7446280843978, "timestamp": "2025-12-08T05:48:08.704281+00:00", "meta": {"OBJECT_NAME": "GOSAT (IBUKI)", "OBJECT_ID": "2009-002A", "EPOCH": "2025-12-07T21:18:36.750240", "MEAN_MOTION": 14.67539645, "ECCENTRICITY": 9.79e-05, "INCLINATION": 98.077, "RA_OF_ASC_NODE": 90.5588, "ARG_OF_PERICENTER": 87.4854, "MEAN_ANOMALY": 272.6463, "EPHEMERIS_TYPE": 0, "CLASSIFICATION_TYPE": "U", "NORAD_CAT_ID": 33492, "ELEMENT_SET_NO": 999, "REV_AT_EPOCH": 90340, "BSTAR": 0.00027722392, "MEAN_MOTION_DOT": 1.524e-05, "MEAN_MOTION_DDOT": 0}, "tle": {"line1": "1 33492U 09002A   25341.88792535  .00001524  00000+0  27722-3 0  9998", "line2": "2 33492  98.0770  90.5588 0000979  87.4854 272.6463 14.67539645903406"}}, "geometry": {"type": "Point", "coordinates": [71.38827045298969, 66.97412770701604]}}, {"type": "Feature", "properties": {"norad_id": 35681, "name": "DEIMOS-1", "group": "resource", "lat": 26.29350431308168, "lon": 139.2140988773697, "alt_km": 643.5394137159919, "timestamp": "2025-12-08T05:48:08.704293+00:00", "meta": {"OBJECT_NAME": "DEIMOS-1", "OBJECT_ID": "2009-041A", "EPOCH": "2025-12-07T23:10:11.004960", "MEAN_MOTION": 14.74940888, "ECCENTRICITY": 0.00027008, "INCLINATION": 97.7153, "RA_OF_ASC_NODE": 142.7914, "ARG_OF_PERICENTER": 89.5996, "MEAN_ANOMALY": 270.5523, "EPHEMERIS_TYPE": 0, "CLASSIFICATION_TYPE": "U", "NORAD_CAT_ID": 35681, "ELEMENT_SET_NO": 999, "REV_AT_EPOCH": 87869, "BSTAR": 0.00018004868, "MEAN_MOTION_DOT": 1.162e-05, "MEAN_MOTION_DDOT": 0}, "tle": {"line1": "1 35681U 09041A   25341.96540515  .00001162  00000+0  18005-3 0  9993", "line2": "2 35681  97.7153 142.7914 0002700  89.5996 270.5523 14.74940888878695"}}, "geometry": {"type": "Point", "coordinates": [139.2140988773697, 26.29350431308168]}}, {"type": "Feature", "properties": {"norad_id": 35682, "name": "DUBAISAT-1", "group": "resource", "lat": -32.59265112374702, "lon": 118.13285486798756, "alt_km": 645.7012312114039, "timestamp": "2025-12-08T05:48:08.704304+00:00", "meta": {"OBJECT_NAME": "DUBAISAT-1", "OBJECT_ID": "2009-041B", "EPOCH": "2025-12-07T23:26:13.267680", "MEAN_MOTION": 14.74582653, "ECCENTRICITY": 0.00098433, "INCLINATION": 97.979, "RA_OF_ASC_NODE": 112.7267, "ARG_OF_PERICENTER": 331.0361, "MEAN_ANOMALY": 29.03, "EPHEMERIS_TYPE": 0, "CLASSIFICATION_TYPE": "U", "NORAD_CAT_ID": 35682, "ELEMENT_SET_NO": 999, "REV_AT_EPOCH": 87691, "BSTAR": 0.0003257187, "MEAN_MOTION_DOT": 2.121e-05, "MEAN_MOTION_DDOT": 0}, "tle": {"line1": "1 35682U 09041B   25341.97654245  .00002121  00000+0  32572-3 0  9992", "line2": "2 35682  97.9790 112.7267 0009843 331.0361  29.0300 14.74582653876914"}}, "geometry": {"type": "Point", "coordinates": [118.13285486798756, -32.59265112374702]}}, {"type": "Feature", "properties": {"norad_id": 35931, "name": "OCEANSAT-2", "group": "resource", "lat": -79.34569081751742, "lon": 33.52758141882669, "alt_km": 911.5472030667488, "timestamp": "2025-12-08T05:48:08.704314+00:00", "meta": {"OBJECT_NAME": "OCEANSAT-2", "OBJECT_ID": "2009-051A", "EPOCH": "2025-12-07T23:20:12.513984", "MEAN_MOTION": 13.99625669, "ECCENTRICITY": 0.00163972, "INCLINATION": 98.2226, "RA_OF_ASC_NODE": 343.0565, "ARG_OF_PERICENTER": 57.4797, "MEAN_ANOMALY": 302.7951, "EPHEMERIS_TYPE": 0, "CLASSIFICATION_TYPE": "U", "NORAD_CAT_ID": 35931, "ELEMENT_SET_NO": 999, "REV_AT_EPOCH": 85258, "BSTAR": -8.5645618e-05, "MEAN_MOTION_DOT": -1.63e-06, "MEAN_MOTION_DDOT": 0}, "tle": {"line1": "1 35931U 09051A   25341.97236706 -.00000163  00000+0 -85646-4 0  9995", "line2": "2 35931  98.2226 343.0565 0016397  57.4797 302.7951 13.99625669852584"}}, "geometry": {"type": "Point", "coordinates": [33.52758141882669, -79.34569081751742]}}, {"type": "Feature", "properties": {"norad_id": 35946, "name": "WORLDVIEW-2 (WV-2)", "group": "resource", "lat": 36.436330111784464, "lon": -120.29066589442876, "alt_km": 762.0937148270386, "timestamp": "2025-12-08T05:48:08.704325+00:00", "meta": {"OBJECT_NAME": "WORLDVIEW-2 (WV-2)", "OBJECT_ID": "2009-055A", "EPOCH": "2025-12-07T22:27:30.825216", "MEAN_MOTION": 14.37649276, "ECCENTRICITY": 0.00053888, "INCLINATION": 98.4765, "RA_OF_ASC_NODE": 53.087, "ARG_OF_PERICENTER": 78.4252, "MEAN_ANOMALY": 281.754, "EPHEMERIS_TYPE": 0, "CLASSIFICATION_TYPE": "U", "NORAD_CAT_ID": 35946, "ELEMENT_SET_NO": 999, "REV_AT_EPOCH": 84816, "BSTAR": 0.00012503417, "MEAN_MOTION_DOT": 3.32e-06, "MEAN_MOTION_DDOT": 0}, "tle": {"line1": "1 35946U 09055A   25341.93577344  .00000332  00000+0  12503-3 0  9994", "line2": "2 35946  98.4765  53.0870 0005388  78.4252 281.7540 14.37649276848166"}}, "geometry": {"type": "Point", "coordinates": [-120.29066589442876, 36.436330111784464]}}, {"type": "Feature", "properties": {"norad_id": 36036, "name": "SMOS", "group": "resource", "lat": 34.56576355962549, "lon": -6.773028088030136, "alt_km": 756.6990602611149, "timestamp": "2025-12-08T05:48:08.704335+00:00", "meta": {"OBJECT_NAME": "SMOS", "OBJECT_ID": "2009-059A", "EPOCH": "2025-12-07T22:27:35.779392", "MEAN_MOTION": 14.39734512, "ECCENTRICITY": 0.0001121, "INCLINATION": 98.4384, "RA_OF_ASC_NODE": 167.0554, "ARG_OF_PERICENTER": 84.9572, "MEAN_ANOMALY": 275.1744, "EPHEMERIS_TYPE": 0, "CLASSIFICATION_TYPE": "U", "NORAD_CAT_ID": 36036, "ELEMENT_SET_NO": 999, "REV_AT_EPOCH": 84593, "BSTAR": 0.00021657186, "MEAN_MOTION_DOT": 6.35e-06, "MEAN_MOTION_DDOT": 0}, "tle": {"line1": "1 36036U 09059A   25341.93583078  .00000635  00000+0  21657-3 0  9996", "line2": "2 36036  98.4384 167.0554 0001121  84.9572 275.1744 14.39734512845932"}}, "geometry": {"type": "Point", "coordinates": [-6.773028088030136, 34.56576355962549]}}, {"type": "Feature", "properties": {"norad_id": 36110, "name": "YAOGAN-7", "group": "resource", "lat": 73.77152363083584, "lon": -164.99965282570764, "alt_km": 641.9569530071767, "timestamp": "2025-12-08T05:48:08.704345+00:00", "meta": {"OBJECT_NAME": "YAOGAN-7", "OBJECT_ID": "2009-069A", "EPOCH": "2025-12-07T22:57:34.978176", "MEAN_MOTION": 14.77720894, "ECCENTRICITY": 0.00235361, "INCLINATION": 98.0303, "RA_OF_ASC_NODE": 223.7306, "ARG_OF_PERICENTER": 297.5639, "MEAN_ANOMALY": 62.318, "EPHEMERIS_TYPE": 0, "CLASSIFICATION_TYPE": "U", "NORAD_CAT_ID": 36110, "ELEMENT_SET_NO": 999, "REV_AT_EPOCH": 86138, "BSTAR": 0.00016678581, "MEAN_MOTION_DOT": 1.147e-05, "MEAN_MOTION_DDOT": 0}, "tle": {"line1": "1 36110U 09069A   25341.95665484  .00001147  00000+0  16679-3 0  9991", "line2": "2 36110  98.0303 223.7306 0023536 297.5639  62.3180 14.77720894861384"}}, "geometry": {"type": "Point", "coordinates": [-164.99965282570764, 73.77152363083584]}}, {"type": "Feature", "properties": {"norad_id": 36605, "name": "TANDEM-X", "group": "resource", "lat": 11.600487452572803, "lon": -13.849835348099722, "alt_km": 509.51421863618, "timestamp": "2025-12-08T05:48:08.704356+00:00", "meta": {"OBJECT_NAME": "TANDEM-X", "OBJECT_ID": "2010-030A", "EPOCH": "2025-12-07T13:56:33.880416", "MEAN_MOTION": 15.19154618, "ECCENTRICITY": 0.00020407, "INCLINATION": 97.4453, "RA_OF_ASC_NODE": 347.0372, "ARG_OF_PERICENTER": 90.9544, "MEAN_ANOMALY": 269.1924, "EPHEMERIS_TYPE": 0, "CLASSIFICATION_TYPE": "U", "NORAD_CAT_ID": 36605, "ELEMENT_SET_NO": 999, "REV_AT_EPOCH": 85755, "BSTAR": 0.00016903556, "MEAN_MOTION_DOT": 3.485e-05, "MEAN_MOTION_DDOT": 0}, "tle": {"line1": "1 36605U 10030A   25341.58094769  .00003485  00000+0  16904-3 0  9999", "line2": "2 36605  97.4453 347.0372 0002040  90.9544 269.1924 15.19154618857551"}}, "geometry": {"type": "Point", "coordinates": [-13.849835348099722, 11.600487452572803]}}, {"type": "Feature", "properties": {"norad_id": 36795, "name": "CARTOSAT-2B", "group": "resource", "lat": -13.697243420526174, "lon": 33.3292606857415, "alt_km": 640.060298855281, "timestamp": "2025-12-08T05:48:08.704366+00:00", "meta": {"OBJECT_NAME": "CARTOSAT-2B", "OBJECT_ID": "2010-035A", "EPOCH": "2025-12-07T21:44:42.197280", "MEAN_MOTION": 14.7877769, "ECCENTRICITY": 0.00129106, "INCLINATION": 97.7859, "RA_OF_ASC_NODE": 31.0934, "ARG_OF_PERICENTER": 91.9022, "MEAN_ANOMALY": 268.3668, "EPHEMERIS_TYPE": 0, "CLASSIFICATION_TYPE": "U", "NORAD_CAT_ID": 36795, "ELEMENT_SET_NO": 999, "REV_AT_EPOCH": 83158, "BSTAR": 0.00017646478, "MEAN_MOTION_DOT": 1.248e-05, "MEAN_MOTION_DDOT": 0}, "tle": {"line1": "1 36795U 10035A   25341.90604395  .00001248  00000+0  17646-3 0  9991", "line2": "2 36795  97.7859  31.0934 0012910  91.9022 268.3668 14.78777690831583"}}, "geometry": {"type": "Point", "coordinates": [33.3292606857415, -13.697243420526174]}}, {"type": "Feature", "properties": {"norad_id": 36834, "name": "YAOGAN-10", "group": "resource", "lat": -27.52307816430921, "lon": 6.252783187726165, "alt_km": 621.1105671435962, "timestamp": "2025-12-08T05:48:08.704377+00:00", "meta": {"OBJECT_NAME": "YAOGAN-10", "OBJECT_ID": "2010-038A", "EPOCH": "2025-12-07T23:42:59.023296", "MEAN_MOTION": 14.84579078, "ECCENTRICITY": 0.00015044, "INCLINATION": 97.9142, "RA_OF_ASC_NODE": 1.8443, "ARG_OF_PERICENTER": 85.0898, "MEAN_ANOMALY": 332.7785, "EPHEMERIS_TYPE": 0, "CLASSIFICATION_TYPE": "U", "NORAD_CAT_ID": 36834, "ELEMENT_SET_NO": 999, "REV_AT_EPOCH": 82883, "BSTAR": 0.00029793085, "MEAN_MOTION_DOT": 2.461e-05, "MEAN_MOTION_DDOT": 0}, "tle": {"line1": "1 36834U 10038A   25341.98818314  .00002461  00000+0  29793-3 0  9998", "line2": "2 36834  97.9142   1.8443 0001504  85.0898 332.7785 14.84579078828833"}}, "geometry": {"type": "Point", "coordinates": [6.252783187726165, -27.52307816430921]}}]}